[{"OBJECT_NAME":"COSMOS 2400","OBJECT_ID":"2003-037A","EPOCH":"2026-03-09T23:52:03.858240","MEAN_MOTION":12.45187793,"ECCENTRICITY":0.00203419,"INCLINATION":82.4728,"RA_OF_ASC_NODE":32.0387,"ARG_OF_PERICENTER":273.6091,"MEAN_ANOMALY":86.2663,"EPHEMERIS_TYPE":0,"CLASSIFICATION_TYPE":"U","NORAD_CAT_ID":27868,"ELEMENT_SET_NO":999,"REV_AT_EPOCH":2519,"BSTAR":8.7847276e-5,"MEAN_MOTION_DOT":2.2e-7,"MEAN_MOTION_DDOT":0},{"OBJECT_NAME":"SL-8 DEB","OBJECT_ID":"1991-009DH","EPOCH":"2026-02-25T09:04:56.099712","MEAN_MOTION":12.18861562,"ECCENTRICITY":0.01262466,"INCLINATION":74.0806,"RA_OF_ASC_NODE":71.5622,"ARG_OF_PERICENTER":114.5529,"MEAN_ANOMALY":246.8724,"EPHEMERIS_TYPE":0,"CLASSIFICATION_TYPE":"U","NORAD_CAT_ID":39694,"ELEMENT_SET_NO":999,"REV_AT_EPOCH":27810,"BSTAR":0.00066776221,"MEAN_MOTION_DOT":5.6e-7,"MEAN_MOTION_DDOT":0}]
